[{"OBJECT_NAME":"STARLINK-3060","OBJECT_ID":"2021-082AB","EPOCH":"2026-03-09T21:31:48.232992","MEAN_MOTION":14.98331265,"ECCENTRICITY":0.00028023,"INCLINATION":69.999,"RA_OF_ASC_NODE":253.9239,"ARG_OF_PERICENTER":264.0018,"MEAN_ANOMALY":96.0821,"EPHEMERIS_TYPE":0,"CLASSIFICATION_TYPE":"U","NORAD_CAT_ID":49155,"ELEMENT_SET_NO":999,"REV_AT_EPOCH":24807,"BSTAR":-3.0736696e-5,"MEAN_MOTION_DOT":-4.6e-6,"MEAN_MOTION_DDOT":0},{"OBJECT_NAME":"COSMOS 886 DEB","OBJECT_ID":"1976-126K","EPOCH":"2026-03-09T08:30:22.920480","MEAN_MOTION":13.29941392,"ECCENTRICITY":0.07924496,"INCLINATION":65.7667,"RA_OF_ASC_NODE":54.9403,"ARG_OF_PERICENTER":220.5455,"MEAN_ANOMALY":133.3914,"EPHEMERIS_TYPE":0,"CLASSIFICATION_TYPE":"U","NORAD_CAT_ID":9653,"ELEMENT_SET_NO":999,"REV_AT_EPOCH":33076,"BSTAR":0.00057511282,"MEAN_MOTION_DOT":1.542e-5,"MEAN_MOTION_DDOT":0}]
